{"type": "FeatureCollection", "features": [ {"type": "Feature", "properties": {"norad_id": 36045, "name": "COSMOS 2251 DEB", "group": "cosmos-2251-debris", "lat": -73.34913999186942, "lon": -5.086511974422083, "alt_km": 703.739168105044, "timestamp": "2025-12-06T05:40:09.642573+00:00", "meta": {"OBJECT_NAME": "COSMOS 2251 DEB", "OBJECT_ID": "1993-036AXG", "EPOCH": "2025-12-01T23:07:36.106176", "MEAN_MOTION": 14.69377741, "ECCENTRICITY": 0.00488719, "INCLINATION": 73.7639, "RA_OF_ASC_NODE": 80.3157, "ARG_OF_PERICENTER": 97.908, "MEAN_ANOMALY": 262.764, "EPHEMERIS_TYPE": 0, "CLASSIFICATION_TYPE": "U", "NORAD_CAT_ID": 36045, "ELEMENT_SET_NO": 999, "REV_AT_EPOCH": 8230, "BSTAR": 0.0029815468, "MEAN_MOTION_DOT": 0.0001797, "MEAN_MOTION_DDOT": 0}, "tle": {"line1": "1 36045U 93036AXG 25335.96361234  .00017970  00000+0  29815-2 0  9991", "line2": "2 36045  73.7639  80.3157 0048871  97.9080 262.7640 14.69377741 82309"}}, "geometry": {"type": "Point", "coordinates": [-5.086511974422083, -73.34913999186942]}}, {"type": "Feature", "properties": {"norad_id": 36046, "name": "COSMOS 2251 DEB", "group": "cosmos-2251-debris", "lat": 71.37637003875027, "lon": -12.699471142978926, "alt_km": 630.3453013472881, "timestamp": "2025-12-06T05:40:09.642584+00:00", "meta": {"OBJECT_NAME": "COSMOS 2251 DEB", "OBJECT_ID": "1993-036AXH", "EPOCH": "2025-12-01T14:24:58.053024", "MEAN_MOTION": 14.65147038, "ECCENTRICITY": 0.00552553, "INCLINATION": 74.0167, "RA_OF_ASC_NODE": 297.9586, "ARG_OF_PERICENTER": 87.1353, "MEAN_ANOMALY": 32.6466, "EPHEMERIS_TYPE": 0, "CLASSIFICATION_TYPE": "U", "NORAD_CAT_ID": 36046, "ELEMENT_SET_NO": 999, "REV_AT_EPOCH": 63840, "BSTAR": 0.0006286755, "MEAN_MOTION_DOT": 3.426e-05, "MEAN_MOTION_DDOT": 0}, "tle": {"line1": "1 36046U 93036AXH 25335.60067191  .00003426  00000+0  62868-3 0  9995", "line2": "2 36046  74.0167 297.9586 0055255  87.1353  32.6466 14.65147038638408"}}, "geometry": {"type": "Point", "coordinates": [-12.699471142978926, 71.37637003875027]}}, {"type": "Feature", "properties": {"norad_id": 36047, "name": "COSMOS 2251 DEB", "group": "cosmos-2251-debris", "lat": 18.099556323936024, "lon": -7.342438271120921, "alt_km": 575.2063956818383, "timestamp": "2025-12-06T05:40:09.642594+00:00", "meta": {"OBJECT_NAME": "COSMOS 2251 DEB", "OBJECT_ID": "1993-036AXJ", "EPOCH": "2025-12-05T07:06:31.972896", "MEAN_MOTION": 14.95489109, "ECCENTRICITY": 0.00079199, "INCLINATION": 74.0351, "RA_OF_ASC_NODE": 349.1851, "ARG_OF_PERICENTER": 15.2944, "MEAN_ANOMALY": 344.8478, "EPHEMERIS_TYPE": 0, "CLASSIFICATION_TYPE": "U", "NORAD_CAT_ID": 36047, "ELEMENT_SET_NO": 999, "REV_AT_EPOCH": 65828, "BSTAR": 0.0033876209, "MEAN_MOTION_DOT": 0.00037705, "MEAN_MOTION_DDOT": 0}, "tle": {"line1": "1 36047U 93036AXJ 25339.29620339  .00037705  00000+0  33876-2 0  9997", "line2": "2 36047  74.0351 349.1851 0007919  15.2944 344.8478 14.95489109658281"}}, "geometry": {"type": "Point", "coordinates": [-7.342438271120921, 18.099556323936024]}}, {"type": "Feature", "properties": {"norad_id": 36048, "name": "COSMOS 2251 DEB", "group": "cosmos-2251-debris", "lat": -40.146185250760595, "lon": 145.1995831833365, "alt_km": 786.2978792136419, "timestamp": "2025-12-06T05:40:09.642604+00:00", "meta": {"OBJECT_NAME": "COSMOS 2251 DEB", "OBJECT_ID": "1993-036AXK", "EPOCH": "2025-12-03T17:20:47.779872", "MEAN_MOTION": 14.37824674, "ECCENTRICITY": 0.00262269, "INCLINATION": 74.0561, "RA_OF_ASC_NODE": 315.8673, "ARG_OF_PERICENTER": 7.889, "MEAN_ANOMALY": 169.513, "EPHEMERIS_TYPE": 0, "CLASSIFICATION_TYPE": "U", "NORAD_CAT_ID": 36048, "ELEMENT_SET_NO": 999, "REV_AT_EPOCH": 85372, "BSTAR": 0.00041796322, "MEAN_MOTION_DOT": 1.239e-05, "MEAN_MOTION_DDOT": 0}, "tle": {"line1": "1 36048U 93036AXK 25337.72277523  .00001239  00000+0  41796-3 0  9991", "line2": "2 36048  74.0561 315.8673 0026226   7.8890 169.5130 14.37824674853725"}}, "geometry": {"type": "Point", "coordinates": [145.1995831833365, -40.146185250760595]}}, {"type": "Feature", "properties": {"norad_id": 36049, "name": "COSMOS 2251 DEB", "group": "cosmos-2251-debris", "lat": 55.108254488481485, "lon": -72.60704919949073, "alt_km": 681.6847195601813, "timestamp": "2025-12-06T05:40:09.642615+00:00", "meta": {"OBJECT_NAME": "COSMOS 2251 DEB", "OBJECT_ID": "1993-036AXL", "EPOCH": "2025-12-04T18:37:38.930592", "MEAN_MOTION": 14.61967054, "ECCENTRICITY": 0.00111967, "INCLINATION": 74.0296, "RA_OF_ASC_NODE": 134.4326, "ARG_OF_PERICENTER": 218.9459, "MEAN_ANOMALY": 141.0902, "EPHEMERIS_TYPE": 0, "CLASSIFICATION_TYPE": "U", "NORAD_CAT_ID": 36049, "ELEMENT_SET_NO": 999, "REV_AT_EPOCH": 85248, "BSTAR": 0.0033771154, "MEAN_MOTION_DOT": 0.0001695, "MEAN_MOTION_DDOT": 0}, "tle": {"line1": "1 36049U 93036AXL 25338.77614503  .00016950  00000+0  33771-2 0  9990", "line2": "2 36049  74.0296 134.4326 0011196 218.9459 141.0902 14.61967054852488"}}, "geometry": {"type": "Point", "coordinates": [-72.60704919949073, 55.108254488481485]}}, {"type": "Feature", "properties": {"norad_id": 36050, "name": "COSMOS 2251 DEB", "group": "cosmos-2251-debris", "lat": 3.6205255462202603, "lon": -151.69258949618302, "alt_km": 550.4643758749871, "timestamp": "2025-12-06T05:40:09.642625+00:00", "meta": {"OBJECT_NAME": "COSMOS 2251 DEB", "OBJECT_ID": "1993-036AXM", "EPOCH": "2025-12-03T08:51:43.557696", "MEAN_MOTION": 15.00813844, "ECCENTRICITY": 0.00890805, "INCLINATION": 74.0318, "RA_OF_ASC_NODE": 213.1033, "ARG_OF_PERICENTER": 294.9563, "MEAN_ANOMALY": 64.2389, "EPHEMERIS_TYPE": 0, "CLASSIFICATION_TYPE": "U", "NORAD_CAT_ID": 36050, "ELEMENT_SET_NO": 999, "REV_AT_EPOCH": 66894, "BSTAR": 0.00068060745, "MEAN_MOTION_DOT": 9.378e-05, "MEAN_MOTION_DDOT": 0}, "tle": {"line1": "1 36050U 93036AXM 25337.36925414  .00009378  00000+0  68061-3 0  9999", "line2": "2 36050  74.0318 213.1033 0089080 294.9563  64.2389 15.00813844668944"}}, "geometry": {"type": "Point", "coordinates": [-151.69258949618302, 3.6205255462202603]}}, {"type": "Feature", "properties": {"norad_id": 36053, "name": "COSMOS 2251 DEB", "group": "cosmos-2251-debris", "lat": -34.224913612433625, "lon": -3.4810951733054925, "alt_km": 712.1554607433418, "timestamp": "2025-12-06T05:40:09.642658+00:00", "meta": {"OBJECT_NAME": "COSMOS 2251 DEB", "OBJECT_ID": "1993-036AXQ", "EPOCH": "2025-12-01T06:02:04.873920", "MEAN_MOTION": 14.56926822, "ECCENTRICITY": 0.0033176, "INCLINATION": 73.8721, "RA_OF_ASC_NODE": 174.7239, "ARG_OF_PERICENTER": 127.7081, "MEAN_ANOMALY": 232.7098, "EPHEMERIS_TYPE": 0, "CLASSIFICATION_TYPE": "U", "NORAD_CAT_ID": 36053, "ELEMENT_SET_NO": 999, "REV_AT_EPOCH": 87277, "BSTAR": 0.0017117, "MEAN_MOTION_DOT": 7.72e-05, "MEAN_MOTION_DDOT": 0}, "tle": {"line1": "1 36053U 93036AXQ 25335.25144530  .00007720  00000+0  17117-2 0  9994", "line2": "2 36053  73.8721 174.7239 0033176 127.7081 232.7098 14.56926822872773"}}, "geometry": {"type": "Point", "coordinates": [-3.4810951733054925, -34.224913612433625]}}, {"type": "Feature", "properties": {"norad_id": 36058, "name": "COSMOS 2251 DEB", "group": "cosmos-2251-debris", "lat": -51.05957441833352, "lon": 25.093199173664882, "alt_km": 722.1820512875302, "timestamp": "2025-12-06T05:40:09.642670+00:00", "meta": {"OBJECT_NAME": "COSMOS 2251 DEB", "OBJECT_ID": "1993-036AXV", "EPOCH": "2025-12-02T21:15:38.245248", "MEAN_MOTION": 14.58601869, "ECCENTRICITY": 0.00452241, "INCLINATION": 74.0244, "RA_OF_ASC_NODE": 52.2381, "ARG_OF_PERICENTER": 188.8228, "MEAN_ANOMALY": 171.2148, "EPHEMERIS_TYPE": 0, "CLASSIFICATION_TYPE": "U", "NORAD_CAT_ID": 36058, "ELEMENT_SET_NO": 999, "REV_AT_EPOCH": 65967, "BSTAR": 0.00090546257, "MEAN_MOTION_DOT": 4.247e-05, "MEAN_MOTION_DDOT": 0}, "tle": {"line1": "1 36058U 93036AXV 25336.88585932  .00004247  00000+0  90546-3 0  9993", "line2": "2 36058  74.0244  52.2381 0045224 188.8228 171.2148 14.58601869659675"}}, "geometry": {"type": "Point", "coordinates": [25.093199173664882, -51.05957441833352]}}, {"type": "Feature", "properties": {"norad_id": 36060, "name": "COSMOS 2251 DEB", "group": "cosmos-2251-debris", "lat": -54.98177029821512, "lon": 90.75130749556071, "alt_km": 761.5233840743422, "timestamp": "2025-12-06T05:40:09.642680+00:00", "meta": {"OBJECT_NAME": "COSMOS 2251 DEB", "OBJECT_ID": "1993-036AXX", "EPOCH": "2025-12-04T02:36:53.095968", "MEAN_MOTION": 14.41968213, "ECCENTRICITY": 0.00149828, "INCLINATION": 74.0291, "RA_OF_ASC_NODE": 250.5702, "ARG_OF_PERICENTER": 348.4876, "MEAN_ANOMALY": 11.5935, "EPHEMERIS_TYPE": 0, "CLASSIFICATION_TYPE": "U", "NORAD_CAT_ID": 36060, "ELEMENT_SET_NO": 999, "REV_AT_EPOCH": 84885, "BSTAR": 0.00063718489, "MEAN_MOTION_DOT": 2.066e-05, "MEAN_MOTION_DDOT": 0}, "tle": {"line1": "1 36060U 93036AXX 25338.10894787  .00002066  00000+0  63718-3 0  9992", "line2": "2 36060  74.0291 250.5702 0014982 348.4876  11.5935 14.41968213848851"}}, "geometry": {"type": "Point", "coordinates": [90.75130749556071, -54.98177029821512]}}, {"type": "Feature", "properties": {"norad_id": 36061, "name": "COSMOS 2251 DEB", "group": "cosmos-2251-debris", "lat": -67.5982203549378, "lon": -124.31122696251435, "alt_km": 809.678153548075, "timestamp": "2025-12-06T05:40:09.642691+00:00", "meta": {"OBJECT_NAME": "COSMOS 2251 DEB", "OBJECT_ID": "1993-036AXY", "EPOCH": "2025-12-04T18:59:50.678592", "MEAN_MOTION": 14.33689484, "ECCENTRICITY": 0.00369257, "INCLINATION": 74.0247, "RA_OF_ASC_NODE": 14.3084, "ARG_OF_PERICENTER": 104.8284, "MEAN_ANOMALY": 255.6962, "EPHEMERIS_TYPE": 0, "CLASSIFICATION_TYPE": "U", "NORAD_CAT_ID": 36061, "ELEMENT_SET_NO": 999, "REV_AT_EPOCH": 64990, "BSTAR": 0.00049565719, "MEAN_MOTION_DOT": 1.36e-05, "MEAN_MOTION_DDOT": 0}, "tle": {"line1": "1 36061U 93036AXY 25338.79155878  .00001360  00000+0  49566-3 0  9990", "line2": "2 36061  74.0247  14.3084 0036925 104.8284 255.6962 14.33689484649907"}}, "geometry": {"type": "Point", "coordinates": [-124.31122696251435, -67.5982203549378]}}]}